
    {
        "ARG_OF_PERICENTER": 325.9302,
        "BSTAR": 5.0167539e-05,
        "CLASSIFICATION_TYPE": "U",
        "ECCENTRICITY": 0.00094156,
        "ELEMENT_SET_NO": 999,
        "EPHEMERIS_TYPE": 0,
        "EPOCH": "2026-05-21T11:04:53.469408",
        "INCLINATION": 98.3989,
        "MEAN_ANOMALY": 34.1279,
        "MEAN_MOTION": 14.36530086,
        "MEAN_MOTION_DDOT": 0,
        "MEAN_MOTION_DOT": 1.05e-06,
        "NORAD_CAT_ID": 39091,
        "OBJECT_ID": "2013-009F",
        "OBJECT_NAME": "BRITE-AUSTRIA",
        "RA_OF_ASC_NODE": 321.56,
        "REV_AT_EPOCH": 69321
    },
    {
        "ARG_OF_PERICENTER": 253.7412,
        "BSTAR": 0.00015394882,
        "CLASSIFICATION_TYPE": "U",
        "ECCENTRICITY": 0.00113766,
        "ELEMENT_SET_NO": 999,
        "EPHEMERIS_TYPE": 0,
        "EPOCH": "2026-05-20T07:53:49.185600",
        "INCLINATION": 98.1188,
        "MEAN_ANOMALY": 106.2555,
        "MEAN_MOTION": 14.93503212,
        "MEAN_MOTION_DDOT": 0,
        "MEAN_MOTION_DOT": 1.56e-05,
        "NORAD_CAT_ID": 39151,
        "OBJECT_ID": "2013-018B",
        "OBJECT_NAME": "NEE-01 PEGASO",
        "RA_OF_ASC_NODE": 283.5678,
        "REV_AT_EPOCH": 70654
    },
    {
        "ARG_OF_PERICENTER": 279.5333,
        "BSTAR": 0.00015216593,
        "CLASSIFICATION_TYPE": "U",
        "ECCENTRICITY": 0.04182978,
        "ELEMENT_SET_NO": 999,
        "EPHEMERIS_TYPE": 0,
        "EPOCH": "2026-05-21T12:45:19.414080",
        "INCLINATION": 80.9912,
        "MEAN_ANOMALY": 75.8856,
        "MEAN_MOTION": 14.90574815,
        "MEAN_MOTION_DDOT": 0,
        "MEAN_MOTION_DOT": 8.85e-05,
        "NORAD_CAT_ID": 39269,
        "OBJECT_ID": "2013-055E",
        "OBJECT_NAME": "POPACS 2",
        "RA_OF_ASC_NODE": 174.6932,
        "REV_AT_EPOCH": 65924
    },
    {
        "ARG_OF_PERICENTER": 153.3897,
        "BSTAR": 0.00028350046,
        "CLASSIFICATION_TYPE": "U",
        "ECCENTRICITY": 0.05546617,
        "ELEMENT_SET_NO": 999,
        "EPHEMERIS_TYPE": 0,
        "EPOCH": "2026-05-20T18:20:36.132576",
        "INCLINATION": 81.0017,
        "MEAN_ANOMALY": 209.6959,
        "MEAN_MOTION": 14.55431784,
        "MEAN_MOTION_DDOT": 0,
        "MEAN_MOTION_DOT": 0.00011944,
        "NORAD_CAT_ID": 39270,
        "OBJECT_ID": "2013-055F",
        "OBJECT_NAME": "POPACS 3",
        "RA_OF_ASC_NODE": 258.9012,
        "REV_AT_EPOCH": 63456
    },
    {
        "ARG_OF_PERICENTER": 342.876,
        "BSTAR": 0.00024286166,
        "CLASSIFICATION_TYPE": "U",
        "ECCENTRICITY": 0.00407554,
        "ELEMENT_SET_NO": 999,
        "EPHEMERIS_TYPE": 0,
        "EPOCH": "2026-05-21T08:14:30.622272",
        "INCLINATION": 97.812,
        "MEAN_ANOMALY": 17.1086,
        "MEAN_MOTION": 15.00958035,
        "MEAN_MOTION_DDOT": 0,
        "MEAN_MOTION_DOT": 3.087e-05,
        "NORAD_CAT_ID": 39417,
        "OBJECT_ID": "2013-066B",
        "OBJECT_NAME": "ZACUBE-1 (TSHEPISOSAT)",
        "RA_OF_ASC_NODE": 103.535,
        "REV_AT_EPOCH": 67670
    },
    {
        "ARG_OF_PERICENTER": 316.7149,
        "BSTAR": 6.5762459e-05,
        "CLASSIFICATION_TYPE": "U",
        "ECCENTRICITY": 0.01621184,
        "ELEMENT_SET_NO": 999,
        "EPHEMERIS_TYPE": 0,
        "EPOCH": "2026-05-21T09:04:40.442304",
        "INCLINATION": 97.717,
        "MEAN_ANOMALY": 42.1407,
        "MEAN_MOTION": 14.58023706,
        "MEAN_MOTION_DDOT": 0,
        "MEAN_MOTION_DOT": 3.1e-06,
        "NORAD_CAT_ID": 39423,
        "OBJECT_ID": "2013-066H",
        "OBJECT_NAME": "WNISAT-1",
        "RA_OF_ASC_NODE": 292.4423,
        "REV_AT_EPOCH": 66282
    },
    {
        "ARG_OF_PERICENTER": 321.9125,
        "BSTAR": 0.00017701365,
        "CLASSIFICATION_TYPE": "U",
        "ECCENTRICITY": 0.00893358,
        "ELEMENT_SET_NO": 999,
        "EPHEMERIS_TYPE": 0,
        "EPOCH": "2026-05-21T14:52:37.502400",
        "INCLINATION": 97.8262,
        "MEAN_ANOMALY": 37.5794,
        "MEAN_MOTION": 14.81577289,
        "MEAN_MOTION_DDOT": 0,
        "MEAN_MOTION_DOT": 1.431e-05,
        "NORAD_CAT_ID": 39427,
        "OBJECT_ID": "2013-066M",
        "OBJECT_NAME": "TRITON-1",
        "RA_OF_ASC_NODE": 52.0319,
        "REV_AT_EPOCH": 67015
    },
    {
        "ARG_OF_PERICENTER": 162.1558,
        "BSTAR": 0.00024287176,
        "CLASSIFICATION_TYPE": "U",
        "ECCENTRICITY": 0.01291412,
        "ELEMENT_SET_NO": 999,
        "EPHEMERIS_TYPE": 0,
        "EPOCH": "2026-05-21T15:04:42.231648",
        "INCLINATION": 97.6495,
        "MEAN_ANOMALY": 198.4247,
        "MEAN_MOTION": 14.69340698,
        "MEAN_MOTION_DDOT": 0,
        "MEAN_MOTION_DOT": 1.579e-05,
        "NORAD_CAT_ID": 39430,
        "OBJECT_ID": "2013-066Q",
        "OBJECT_NAME": "GOMX-1",
        "RA_OF_ASC_NODE": 343.7662,
        "REV_AT_EPOCH": 66601
    },
    {
        "ARG_OF_PERICENTER": 115.7088,
        "BSTAR": 0.00026532714,
        "CLASSIFICATION_TYPE": "U",
        "ECCENTRICITY": 0.00594444,
        "ELEMENT_SET_NO": 999,
        "EPHEMERIS_TYPE": 0,
        "EPOCH": "2026-05-21T08:00:19.307520",
        "INCLINATION": 97.8896,
        "MEAN_ANOMALY": 245.0285,
        "MEAN_MOTION": 14.93524684,
        "MEAN_MOTION_DDOT": 0,
        "MEAN_MOTION_DOT": 2.831e-05,
        "NORAD_CAT_ID": 39440,
        "OBJECT_ID": "2013-066AA",
        "OBJECT_NAME": "CUBEBUG-2 (LO-74)",
        "RA_OF_ASC_NODE": 90.2065,
        "REV_AT_EPOCH": 67298
    },
    {
        "ARG_OF_PERICENTER": 156.0178,
        "BSTAR": 0.00012326223,
        "CLASSIFICATION_TYPE": "U",
        "ECCENTRICITY": 0.00667771,
        "ELEMENT_SET_NO": 999,
        "EPHEMERIS_TYPE": 0,
        "EPOCH": "2026-05-21T11:40:57.355680",
        "INCLINATION": 97.8886,
        "MEAN_ANOMALY": 204.4173,
        "MEAN_MOTION": 14.86501187,
        "MEAN_MOTION_DDOT": 0,
        "MEAN_MOTION_DOT": 1.077e-05,
        "NORAD_CAT_ID": 39441,
        "OBJECT_ID": "2013-066AB",
        "OBJECT_NAME": "NEE-02 KRYSAOR",
        "RA_OF_ASC_NODE": 80.8966,
        "REV_AT_EPOCH": 67223
    },
    {
        "ARG_OF_PERICENTER": 298.9376,
        "BSTAR": 0.00033101689,
        "CLASSIFICATION_TYPE": "U",
        "ECCENTRICITY": 0.0034836,
        "ELEMENT_SET_NO": 999,
        "EPHEMERIS_TYPE": 0,
        "EPOCH": "2026-05-20T16:12:59.664384",
        "INCLINATION": 97.8265,
        "MEAN_ANOMALY": 60.836,
        "MEAN_MOTION": 15.09093359,
        "MEAN_MOTION_DDOT": 0,
        "MEAN_MOTION_DOT": 5.251e-05,
        "NORAD_CAT_ID": 39444,
        "OBJECT_ID": "2013-066AE",
        "OBJECT_NAME": "FUNCUBE-1 (AO-73)",
        "RA_OF_ASC_NODE": 111.5579,
        "REV_AT_EPOCH": 67551
    },
    {
        "ARG_OF_PERICENTER": 50.5298,
        "BSTAR": 0.0002696443,
        "CLASSIFICATION_TYPE": "U",
        "ECCENTRICITY": 0.00503871,
        "ELEMENT_SET_NO": 999,
        "EPHEMERIS_TYPE": 0,
        "EPOCH": "2026-05-21T08:14:57.890976",
        "INCLINATION": 97.8681,
        "MEAN_ANOMALY": 310.0365,
        "MEAN_MOTION": 14.96763327,
        "MEAN_MOTION_DDOT": 0,
        "MEAN_MOTION_DOT": 3.101e-05,
        "NORAD_CAT_ID": 39446,
        "OBJECT_ID": "2013-066AG",
        "OBJECT_NAME": "UWE-3",
        "RA_OF_ASC_NODE": 97.2451,
        "REV_AT_EPOCH": 67356
    }