BRITE-AUSTRIA           
1 39091U 13009F   26141.46172997  .00000105  00000+0  50168-4 0  9993
2 39091  98.3989 321.5600 0009415 325.9302  34.1279 14.36530086693213
NEE-01 PEGASO           
1 39151U 13018B   26140.32904150  .00001560  00000+0  15395-3 0  9996
2 39151  98.1188 283.5678 0011376 253.7412 106.2555 14.93503212706543
POPACS 2                
1 39269U 13055E   26141.53147470  .00008850  00000+0  15217-3 0  9997
2 39269  80.9912 174.6932 0418297 279.5333  75.8856 14.90574815659244
POPACS 3                
1 39270U 13055F   26140.76430709  .00011944  00000+0  28350-3 0  9993
2 39270  81.0017 258.9012 0554661 153.3897 209.6959 14.55431784634566
ZACUBE-1 (TSHEPISOSAT)  
1 39417U 13066B   26141.34340998  .00003087  00000+0  24286-3 0  9996
2 39417  97.8120 103.5350 0040755 342.8760  17.1086 15.00958035676706
WNISAT-1                
1 39423U 13066H   26141.37824586  .00000310  00000+0  65762-4 0  9997
2 39423  97.7170 292.4423 0162118 316.7149  42.1407 14.58023706662828
TRITON-1                
1 39427U 13066M   26141.61987850  .00001431  00000+0  17701-3 0  9996
2 39427  97.8262  52.0319 0089335 321.9125  37.5794 14.81577289670158
GOMX-1                  
1 39430U 13066Q   26141.62826657  .00001579  00000+0  24287-3 0  9998
2 39430  97.6495 343.7662 0129141 162.1558 198.4247 14.69340698666012
CUBEBUG-2 (LO-74)       
1 39440U 13066AA  26141.33355680  .00002831  00000+0  26533-3 0  9998
2 39440  97.8896  90.2065 0059444 115.7088 245.0285 14.93524684672981
NEE-02 KRYSAOR          
1 39441U 13066AB  26141.48677495  .00001077  00000+0  12326-3 0  9992
2 39441  97.8886  80.8966 0066777 156.0178 204.4173 14.86501187672239
FUNCUBE-1 (AO-73)       
1 39444U 13066AE  26140.67569056  .00005251  00000+0  33102-3 0  9991
2 39444  97.8265 111.5579 0034836 298.9376  60.8360 15.09093359675511
UWE-3                   
1 39446U 13066AG  26141.34372559  .00003101  00000+0  26964-3 0  9998
2 39446  97.8681  97.2451 0050387  50.5298 310.0365 14.96763327673560
